{
  "type": "FeatureCollection",
  "features": [
    {
      "type": "Feature",
      "properties": {
        "norad_id": 39586,
        "name": "COSMOS 2251 DEB",
        "group": "cosmos-2251-debris",
        "lat": 59.0454899049851,
        "lon": -87.93113927230847,
        "alt_km": 762.0017184888166,
        "timestamp": "2025-12-04T05:42:43.770312+00:00",
        "meta_object_name": "COSMOS 2251 DEB",
        "meta_object_id": "1993-036BUR",
        "meta_epoch": "2025-12-03T00:45:17.484768",
        "meta_mean_motion": 14.21190507,
        "meta_eccentricity": 0.01005019,
        "meta_inclination": 74.0096,
        "meta_ra_of_asc_node": 245.6735,
        "meta_arg_of_pericenter": 22.6165,
        "meta_mean_anomaly": 349.1523,
        "meta_ephemeris_type": 0,
        "meta_classification_type": "U",
        "meta_norad_cat_id": 39586,
        "meta_element_set_no": 999,
        "meta_rev_at_epoch": 60834,
        "meta_bstar": 0.00065077567,
        "meta_mean_motion_dot": 1.465e-05,
        "meta_mean_motion_ddot": 0,
        "tle_line1": "1 39586U 93036BUR 25337.03145237  .00001465  00000+0  65078-3 0  9991",
        "tle_line2": "2 39586  74.0096 245.6735 0100501  22.6165 349.1523 14.21190507608348"
      },
      "geometry": {
        "type": "Point",
        "coordinates": [
          -87.93113927230847,
          59.0454899049851
        ]
      }
    },
    {
      "type": "Feature",
      "properties": {
        "norad_id": 39591,
        "name": "COSMOS 2251 DEB",
        "group": "cosmos-2251-debris",
        "lat": 39.59939988148648,
        "lon": -83.75324677812294,
        "alt_km": 730.3573184747938,
        "timestamp": "2025-12-04T05:42:43.770321+00:00",
        "meta_object_name": "COSMOS 2251 DEB",
        "meta_object_id": "1993-036BUW",
        "meta_epoch": "2025-12-02T01:57:06.430752",
        "meta_mean_motion": 14.41775079,
        "meta_eccentricity": 0.00288186,
        "meta_inclination": 74.0265,
        "meta_ra_of_asc_node": 266.5373,
        "meta_arg_of_pericenter": 22.6115,
        "meta_mean_anomaly": 349.3407,
        "meta_ephemeris_type": 0,
        "meta_classification_type": "U",
        "meta_norad_cat_id": 39591,
        "meta_element_set_no": 999,
        "meta_rev_at_epoch": 61623,
        "meta_bstar": 0.00055457771,
        "meta_mean_motion_dot": 1.794e-05,
        "meta_mean_motion_ddot": 0,
        "tle_line1": "1 39591U 93036BUW 25336.08132443  .00001794  00000+0  55458-3 0  9992",
        "tle_line2": "2 39591  74.0265 266.5373 0028818  22.6115 349.3407 14.41775079616232"
      },
      "geometry": {
        "type": "Point",
        "coordinates": [
          -83.75324677812294,
          39.59939988148648
        ]
      }
    },
    {
      "type": "Feature",
      "properties": {
        "norad_id": 40218,
        "name": "COSMOS 2251 DEB",
        "group": "cosmos-2251-debris",
        "lat": -54.3681191364384,
        "lon": -118.96514711979655,
        "alt_km": 752.061205614762,
        "timestamp": "2025-12-04T05:42:43.770331+00:00",
        "meta_object_name": "COSMOS 2251 DEB",
        "meta_object_id": "1993-036BUX",
        "meta_epoch": "2025-12-02T02:20:48.132384",
        "meta_mean_motion": 14.41546301,
        "meta_eccentricity": 0.00163619,
        "meta_inclination": 74.0309,
        "meta_ra_of_asc_node": 268.5457,
        "meta_arg_of_pericenter": 353.795,
        "meta_mean_anomaly": 6.3,
        "meta_ephemeris_type": 0,
        "meta_classification_type": "U",
        "meta_norad_cat_id": 40218,
        "meta_element_set_no": 999,
        "meta_rev_at_epoch": 58708,
        "meta_bstar": 0.00047133972,
        "meta_mean_motion_dot": 1.508e-05,
        "meta_mean_motion_ddot": 0,
        "tle_line1": "1 40218U 93036BUX 25336.09777931  .00001508  00000+0  47134-3 0  9993",
        "tle_line2": "2 40218  74.0309 268.5457 0016361 353.7950   6.3000 14.41546301587082"
      },
      "geometry": {
        "type": "Point",
        "coordinates": [
          -118.96514711979655,
          -54.3681191364384
        ]
      }
    },
    {
      "type": "Feature",
      "properties": {
        "norad_id": 40223,
        "name": "COSMOS 2251 DEB",
        "group": "cosmos-2251-debris",
        "lat": -17.391739018975453,
        "lon": -68.65776247613842,
        "alt_km": 566.6820783067133,
        "timestamp": "2025-12-04T05:42:43.770341+00:00",
        "meta_object_name": "COSMOS 2251 DEB",
        "meta_object_id": "1993-036BVC",
        "meta_epoch": "2025-11-30T19:57:11.530080",
        "meta_mean_motion": 15.0129808,
        "meta_eccentricity": 0.00135519,
        "meta_inclination": 73.9359,
        "meta_ra_of_asc_node": 113.1436,
        "meta_arg_of_pericenter": 301.6161,
        "meta_mean_anomaly": 209.1516,
        "meta_ephemeris_type": 0,
        "meta_classification_type": "U",
        "meta_norad_cat_id": 40223,
        "meta_element_set_no": 999,
        "meta_rev_at_epoch": 59195,
        "meta_bstar": 0.0064720663,
        "meta_mean_motion_dot": 0.00084415,
        "meta_mean_motion_ddot": 0,
        "tle_line1": "1 40223U 93036BVC 25334.83138345  .00084415  00000+0  64721-2 0  9997",
        "tle_line2": "2 40223  73.9359 113.1436 0013551 301.6161 209.1516 15.01298080591958"
      },
      "geometry": {
        "type": "Point",
        "coordinates": [
          -68.65776247613842,
          -17.391739018975453
        ]
      }
    },
    {
      "type": "Feature",
      "properties": {
        "norad_id": 40228,
        "name": "COSMOS 2251 DEB",
        "group": "cosmos-2251-debris",
        "lat": -29.48750781714215,
        "lon": 105.54965715540146,
        "alt_km": 771.2932201539679,
        "timestamp": "2025-12-04T05:42:43.770351+00:00",
        "meta_object_name": "COSMOS 2251 DEB",
        "meta_object_id": "1993-036BVH",
        "meta_epoch": "2025-11-30T14:54:47.611296",
        "meta_mean_motion": 14.40947575,
        "meta_eccentricity": 0.0023645,
        "meta_inclination": 74.0546,
        "meta_ra_of_asc_node": 282.9283,
        "meta_arg_of_pericenter": 346.4377,
        "meta_mean_anomaly": 191.0914,
        "meta_ephemeris_type": 0,
        "meta_classification_type": "U",
        "meta_norad_cat_id": 40228,
        "meta_element_set_no": 999,
        "meta_rev_at_epoch": 58746,
        "meta_bstar": 0.00037702,
        "meta_mean_motion_dot": 1.188e-05,
        "meta_mean_motion_ddot": 0,
        "tle_line1": "1 40228U 93036BVH 25334.62138439  .00001188  00000+0  37702-3 0  9999",
        "tle_line2": "2 40228  74.0546 282.9283 0023645 346.4377 191.0914 14.40947575587463"
      },
      "geometry": {
        "type": "Point",
        "coordinates": [
          105.54965715540146,
          -29.48750781714215
        ]
      }
    },
    {
      "type": "Feature",
      "properties": {
        "norad_id": 40230,
        "name": "COSMOS 2251 DEB",
        "group": "cosmos-2251-debris",
        "lat": 56.70639192260795,
        "lon": 37.004905738287334,
        "alt_km": 735.9696128693704,
        "timestamp": "2025-12-04T05:42:43.770371+00:00",
        "meta_object_name": "COSMOS 2251 DEB",
        "meta_object_id": "1993-036BVK",
        "meta_epoch": "2025-12-01T11:25:53.279904",
        "meta_mean_motion": 14.49219846,
        "meta_eccentricity": 0.00191733,
        "meta_inclination": 74.0459,
        "meta_ra_of_asc_node": 248.0026,
        "meta_arg_of_pericenter": 306.9288,
        "meta_mean_anomaly": 170.1054,
        "meta_ephemeris_type": 0,
        "meta_classification_type": "U",
        "meta_norad_cat_id": 40230,
        "meta_element_set_no": 999,
        "meta_rev_at_epoch": 58808,
        "meta_bstar": 0.00090515824,
        "meta_mean_motion_dot": 3.43e-05,
        "meta_mean_motion_ddot": 0,
        "tle_line1": "1 40230U 93036BVK 25335.47631111  .00003430  00000+0  90516-3 0  9995",
        "tle_line2": "2 40230  74.0459 248.0026 0019173 306.9288 170.1054 14.49219846588084"
      },
      "geometry": {
        "type": "Point",
        "coordinates": [
          37.004905738287334,
          56.70639192260795
        ]
      }
    },
    {
      "type": "Feature",
      "properties": {
        "norad_id": 40233,
        "name": "COSMOS 2251 DEB",
        "group": "cosmos-2251-debris",
        "lat": 25.007395674056802,
        "lon": 127.10699597834777,
        "alt_km": 730.2680019892514,
        "timestamp": "2025-12-04T05:42:43.770383+00:00",
        "meta_object_name": "COSMOS 2251 DEB",
        "meta_object_id": "1993-036BVN",
        "meta_epoch": "2025-11-29T16:55:06.040992",
        "meta_mean_motion": 14.58149893,
        "meta_eccentricity": 0.00465907,
        "meta_inclination": 73.9381,
        "meta_ra_of_asc_node": 128.0565,
        "meta_arg_of_pericenter": 205.1304,
        "meta_mean_anomaly": 154.7594,
        "meta_ephemeris_type": 0,
        "meta_classification_type": "U",
        "meta_norad_cat_id": 40233,
        "meta_element_set_no": 999,
        "meta_rev_at_epoch": 58947,
        "meta_bstar": 0.0013059078,
        "meta_mean_motion_dot": 6.085e-05,
        "meta_mean_motion_ddot": 0,
        "tle_line1": "1 40233U 93036BVN 25333.70493103  .00006085  00000+0  13059-2 0  9994",
        "tle_line2": "2 40233  73.9381 128.0565 0046590 205.1304 154.7594 14.58149893589471"
      },
      "geometry": {
        "type": "Point",
        "coordinates": [
          127.10699597834777,
          25.007395674056802
        ]
      }
    }
  ]
}